NORAD_CAT_ID,OBJECT_NAME,OBJECT_TYPE,EPOCH,MEAN_MOTION,ECCENTRICITY,INCLINATION,RA_OF_ASC_NODE,ARG_OF_PERICENTER,MEAN_ANOMALY,BSTAR,MEAN_MOTION_DOT,MEAN_MOTION_DDOT,TLE_LINE0,TLE_LINE1,TLE_LINE2,SEMIMAJOR_AXIS,PERIOD,APOGEE,PERIGEE,DECAYED
52658.0,STARLINK-4082,PAYLOAD,2022-11-02 02:35:55,15.08845425,0.0002592,53.217,246.9858,29.4076,330.7061,0.00027569,4.103e-05,0.0,0 STARLINK-4082,1 52658U 22053C   22306.10828194  .00004103  00000-0  27569-3 0  9994,2 52658  53.2170 246.9858 0002592  29.4076 330.7061 15.08845425 26510,6917.864000000001,95.437,541.5219999999998,537.936,0.0
52658.0,STARLINK-4082,PAYLOAD,2022-11-02 05:46:42,15.08844081,0.0002866,53.2164,246.3927,22.8653,337.2466,0.00029416,4.397e-05,0.0,0 STARLINK-4082,1 52658U 22053C   22306.24076441  .00004397  00000-0  29416-3 0  9997,2 52658  53.2164 246.3927 0002866  22.8653 337.2466 15.08844081 26536,6917.868,95.437,541.716,537.75,0.0
52658.0,STARLINK-4082,PAYLOAD,2022-11-02 20:05:11,15.08826297,0.0002669,53.2173,243.7149,31.1145,329.0004,5.3994e-05,5.71e-06,0.0,0 STARLINK-4082,1 52658U 22053C   22306.83693523  .00000571  00000-0  53994-4 0  9997,2 52658  53.2173 243.7149 0002669  31.1145 329.0004 15.08826297 26629,6917.922,95.438,541.634,537.941,0.0
52658.0,STARLINK-4082,PAYLOAD,2022-11-03 02:26:44,15.08810475,0.0002313,53.2182,242.5234,38.7774,321.3384,0.00025121,3.709e-05,0.0,0 STARLINK-4082,1 52658U 22053C   22307.10190177  .00003709  00000-0  25121-3 0  9991,2 52658  53.2182 242.5234 0002313  38.7774 321.3384 15.08810475 26669,6917.971,95.439,541.436,538.236,0.0
52658.0,STARLINK-4082,PAYLOAD,2022-11-03 04:02:06,15.0883081,0.0002313,53.2179,242.2265,39.4294,320.6866,3.2892e-05,2.35e-06,0.0,0 STARLINK-4082,1 52658U 22053C   22307.16813422  .00000235  00000-0  32892-4 0  9997,2 52658  53.2179 242.2265 0002313  39.4294 320.6866 15.08830810 26674,6917.908,95.438,541.374,538.173,0.0
52658.0,STARLINK-4082,PAYLOAD,2022-11-03 19:55:55,15.08877512,0.0002885,53.2177,239.2545,38.9627,321.1572,-0.00011364,-2.099e-05,0.0,0 STARLINK-4082,1 52658U 22053C   22307.83050885 -.00002099  00000-0 -11364-3 0  9999,2 52658  53.2177 239.2545 0002885  38.9627 321.1572 15.08877512 26778,6917.766,95.435,541.627,537.635,0.0
52658.0,STARLINK-4082,PAYLOAD,2022-11-04 03:52:52,15.08854655,0.0002555,53.2164,237.768,25.7614,334.3505,0.00041185,6.275e-05,0.0,0 STARLINK-4082,1 52658U 22053C   22308.16172306  .00006275  00000-0  41185-3 0  9991,2 52658  53.2164 237.7680 0002555  25.7614 334.3505 15.08854655 26822,6917.8359999999975,95.437,541.4680000000002,537.933,0.0
52658.0,STARLINK-4082,PAYLOAD,2022-11-04 05:28:15,15.08855073,0.0002461,53.2164,237.47,29.6372,330.4759,0.00035289,5.335e-05,0.0,0 STARLINK-4082,1 52658U 22053C   22308.22796154  .00005335  00000-0  35289-3 0  9995,2 52658  53.2164 237.4700 0002461  29.6372 330.4759 15.08855073 26836,6917.834,95.437,541.4019999999998,537.997,0.0
52658.0,STARLINK-4082,PAYLOAD,2022-11-04 19:46:44,15.08845594,0.0002373,53.2165,234.7929,27.1785,332.9331,0.00034697,5.239e-05,0.0,0 STARLINK-4082,1 52658U 22053C   22308.82412160  .00005239  00000-0  34697-3 0  9998,2 52658  53.2165 234.7929 0002373  27.1785 332.9331 15.08845594 26923,6917.863,95.437,541.37,538.087,0.0
52658.0,STARLINK-4082,PAYLOAD,2022-11-05 02:08:17,15.08832288,0.0002309,53.2169,233.6034,27.0492,333.0619999999999,0.00025722,3.807e-05,0.0,0 STARLINK-4082,1 52658U 22053C   22309.08908651  .00003807  00000-0  25722-3 0  9990,2 52658  53.2169 233.6034 0002309  27.0492 333.0620 15.08832288 26968,6917.904,95.438,541.366,538.172,0.0
52658.0,STARLINK-4082,PAYLOAD,2022-11-05 11:40:37,15.08822731,0.0002572,53.2174,231.8201,26.9654,333.1471,-8.308e-05,-1.6100000000000002e-05,0.0,0 STARLINK-4082,1 52658U 22053C   22309.48654185 -.00001610  00000-0 -83080-4 0  9998,2 52658  53.2174 231.8201 0002572  26.9654 333.1471 15.08822731 27025,6917.933000000001,95.439,541.577,538.019,0.0
52658.0,STARLINK-4082,PAYLOAD,2022-11-05 18:02:10,15.088127599999998,0.0002427,53.2176,230.6327,27.8269,332.2853,-0.00030838,-5.189e-05,0.0,0 STARLINK-4082,1 52658U 22053C   22309.75151606 -.00005189  00000-0 -30838-3 0  9995,2 52658  53.2176 230.6327 0002427  27.8269 332.2853 15.08812760 27063,6917.964,95.439,541.508,538.15,0.0
52658.0,STARLINK-4082,PAYLOAD,2022-11-06 03:34:29,15.08823268,0.0002572,53.2171,228.8464,37.6272,322.49,-0.00013866,-2.494e-05,0.0,0 STARLINK-4082,1 52658U 22053C   22310.14895035 -.00002494  00000-0 -13866-3 0  9999,2 52658  53.2171 228.8464 0002572  37.6272 322.4900 15.08823268 27129,6917.932,95.439,541.576,538.0169999999998,0.0
52658.0,STARLINK-4082,PAYLOAD,2022-11-06 17:52:56,15.08831089,0.0002558,53.2176,226.1708,26.5551,333.5572,5.3981e-05,5.71e-06,0.0,0 STARLINK-4082,1 52658U 22053C   22310.74510172  .00000571  00000-0  53981-4 0  9996,2 52658  53.2176 226.1708 0002558  26.5551 333.5572 15.08831089 27215,6917.908,95.438,541.5419999999998,538.003,0.0
52658.0,STARLINK-4082,PAYLOAD,2022-11-07 20:54:30,15.08823615,0.0002583999999999,53.217,221.1159,29.2678,330.8459,0.00031272,4.69e-05,0.0,0 STARLINK-4082,1 52658U 22053C   22311.87118875  .00004690  00000-0  31272-3 0  9999,2 52658  53.2170 221.1159 0002584  29.2678 330.8459 15.08823615 27381,6917.93,95.439,541.5830000000002,538.008,0.0
52658.0,STARLINK-4082,PAYLOAD,2022-11-08 00:05:16,15.08840528,0.0002911,53.2173,220.5222,24.5679,335.5452,0.000422,6.434e-05,0.0,0 STARLINK-4082,1 52658U 22053C   22312.00365772  .00006434  00000-0  42200-3 0  9996,2 52658  53.2173 220.5222 0002911  24.5679 335.5452 15.08840528 27401,6917.879,95.438,541.758,537.73,0.0
52658.0,STARLINK-4082,PAYLOAD,2022-11-08 17:34:29,15.08865502,0.0002434,53.2171,217.249,30.4947,329.6187,0.00018355,2.636e-05,0.0,0 STARLINK-4082,1 52658U 22053C   22312.73228098  .00002636  00000-0  18355-3 0  9999,2 52658  53.2171 217.2490 0002434  30.4947 329.6187 15.08865502 27513,6917.802,95.436,541.351,537.984,0.0
52658.0,STARLINK-4082,PAYLOAD,2022-11-08 20:45:15,15.088626199999998,0.0001456,53.2176,216.6501,57.131,302.9822,0.00012899,1.767e-05,0.0,0 STARLINK-4082,1 52658U 22053C   22312.86476031  .00001767  00000-0  12899-3 0  9996,2 52658  53.2176 216.6501 0001456  57.1310 302.9822 15.08862620 27537,6917.811,95.436,540.683,538.669,0.0
52658.0,STARLINK-4082,PAYLOAD,2022-11-09 03:06:48,15.08844347,0.0002483,53.2178,215.46400000000003,27.5845,332.5278,8.2291e-05,1.022e-05,0.0,0 STARLINK-4082,1 52658U 22053C   22313.12973271  .00001022  00000-0  82291-4 0  9992,2 52658  53.2178 215.4640 0002483  27.5845 332.5278 15.08844347 27579,6917.8669999999975,95.437,541.45,538.014,0.0
52658.0,STARLINK-4082,PAYLOAD,2022-11-09 11:03:45,15.0883083,0.0001936,53.2184,213.9709,39.9768,320.1367,-8.791e-05,-1.687e-05,0.0,0 STARLINK-4082,1 52658U 22053C   22313.46094396 -.00001687  00000-0 -87910-4 0  9993,2 52658  53.2184 213.9709 0001936  39.9768 320.1367 15.08830830 27628,6917.908,95.438,541.113,538.434,0.0
52658.0,STARLINK-4082,PAYLOAD,2022-11-09 20:36:04,15.0884345,0.0002247,53.2177,212.1907,35.3384,324.7757,-0.00019191,-3.342e-05,0.0,0 STARLINK-4082,1 52658U 22053C   22313.85838248 -.00003342  00000-0 -19191-3 0  9993,2 52658  53.2177 212.1907 0002247  35.3384 324.7757 15.08843450 27682,6917.87,95.437,541.289,538.18,0.0
52658.0,STARLINK-4082,PAYLOAD,2022-11-10 12:29:56,15.08867963,0.0002619,53.2176,209.2226,25.733,334.3792,-0.00061852,-0.00010127,0.0,0 STARLINK-4082,1 52658U 22053C   22314.52078847 -.00010127  00000-0 -61852-3 0  9999,2 52658  53.2176 209.2226 0002619  25.7330 334.3792 15.08867963 27781,6917.795,95.436,541.472,537.8480000000002,0.0
52658.0,STARLINK-4082,PAYLOAD,2022-11-10 20:26:51,15.08834155,0.0002905,53.2173,207.7357,27.5621,332.5525,-1.7145999999999998e-05,-5.61e-06,0.0,0 STARLINK-4082,1 52658U 22053C   22314.85198400 -.00000561  00000-0 -17146-4 0  9992,2 52658  53.2173 207.7357 0002905  27.5621 332.5525 15.08834155 27834,6917.898,95.438,541.773,537.754,0.0
52658.0,STARLINK-4082,PAYLOAD,2022-11-11 02:48:23,15.08841399,0.0002735,53.2169,206.5452,30.2782,329.8368,3.6432e-05,2.91e-06,0.0,0 STARLINK-4082,1 52658U 22053C   22315.11693841  .00000291  00000-0  36432-4 0  9998,2 52658  53.2169 206.5452 0002735  30.2782 329.8368 15.08841399 27878,6917.876,95.437,541.633,537.849,0.0
52658.0,STARLINK-4082,PAYLOAD,2022-11-11 17:06:51,15.088372,0.0002749,53.2169,203.86900000000003,32.5698,327.5463,0.00018972,2.732e-05,0.0,0 STARLINK-4082,1 52658U 22053C   22315.71309888  .00002732  00000-0  18972-3 0  9999,2 52658  53.2169 203.8690 0002749  32.5698 327.5463 15.08837200 27965,6917.889,95.438,541.656,537.852,0.0
52658.0,STARLINK-4082,PAYLOAD,2022-11-11 20:17:38,15.08832916,0.0002735,53.217,203.2746,31.1192,328.9962,0.00015338,2.153e-05,0.0,0 STARLINK-4082,1 52658U 22053C   22315.84558323  .00002153  00000-0  15338-3 0  9993,2 52658  53.2170 203.2746 0002735  31.1192 328.9962 15.08832916 27982,6917.901999999999,95.438,541.659,537.875,0.0
52658.0,STARLINK-4082,PAYLOAD,2022-11-11 23:28:25,15.08787132,0.0002574,53.217,202.68,37.855,322.2623,0.00088623,0.00013824,0.0,0 STARLINK-4082,1 52658U 22053C   22315.97807203  .00013824  00000-0  88623-3 0  9995,2 52658  53.2170 202.6800 0002574  37.8550 322.2623 15.08787132 28002,6918.042,95.441,541.688,538.126,0.0
52658.0,STARLINK-4082,PAYLOAD,2022-11-12 12:11:29,15.08834956,0.0002764,53.2169,200.3012,32.5543,327.5619,0.00015901,2.243e-05,0.0,0 STARLINK-4082,1 52658U 22053C   22316.50798488  .00002243  00000-0  15901-3 0  9991,2 52658  53.2169 200.3012 0002764  32.5543 327.5619 15.08834956 28083,6917.896,95.438,541.673,537.849,0.0
52658.0,STARLINK-4082,PAYLOAD,2022-11-12 16:57:39,15.08835447,0.0002829,53.2166,199.4083,31.3861,328.7299,0.00024214,3.567e-05,0.0,0 STARLINK-4082,1 52658U 22053C   22316.70670212  .00003567  00000-0  24214-3 0  9994,2 52658  53.2166 199.4083 0002829  31.3861 328.7299 15.08835447 28115,6917.894,95.438,541.716,537.802,0.0
